COSMOS 2251 DEB         
1 38478U 93036BTN 17343.49470195  .00002689  00000-0  29062-3 0  9995
2 38478  74.0161 274.5468 0040994  56.2541 304.2534 14.88265651264465
